JILIN-1 KUANFU 01       
1 45016U 20003A   26188.48658602  .00002750  00000+0  16913-3 0  9991
2 45016  97.5019 262.0463 0008641 225.5181 134.5343 15.10839362358394
JILIN-1 KUANFU-01B      
1 49003U 21061A   26188.51992660  .00002120  00000+0  13515-3 0  9991
2 49003  97.5200 264.3372 0006764   6.2548 353.8764 15.09785214276414
JILIN-1 KUANFU 01C      
1 52443U 22048A   26188.51073632  .00002129  00000+0  13614-3 0  9997
2 52443  97.5247 265.3152 0016868 248.3678 111.5755 15.09572039230264
JILIN-1 KUANFU 02A      
1 57696U 23127A   26188.53617802  .00003427  00000+0  21021-3 0  9999
2 57696  97.5564 282.0973 0009977 266.7439  93.2649 15.10773488158709
JILIN-01 KUANFU 02B 1   
1 61189U 24169A   26188.54103810  .00002918  00000+0  18846-3 0  9993
2 61189  97.5570 277.7493 0002196  10.9017 349.2259 15.09022277 98898
JILIN-01 KUANFU 02B 2   
1 61190U 24169B   26188.52046639  .00003051  00000+0  19701-3 0  9998
2 61190  97.5567 277.1148 0005071 313.1626  46.9178 15.08986905 98893
JILIN-01 KUANFU 02B 3   
1 61191U 24169C   26188.52959620  .00003223  00000+0  20745-3 0  9993
2 61191  97.5561 277.5567 0012521 233.9738 126.0331 15.09023993 98899
JILIN-01 KUANFU 02B 4   
1 61192U 24169D   26188.49827834  .00002481  00000+0  16065-3 0  9996
2 61192  97.5527 277.0560 0013298 188.9518 171.1475 15.09007125 98896
JILIN-01 KUANFU 02B 5   
1 61193U 24169E   26188.48548367  .00002332  00000+0  15117-3 0  9999
2 61193  97.5572 277.8351 0012482 214.4322 145.6099 15.09039469 98899
JILIN-01 KUANFU 02B 6   
1 61194U 24169F   26188.50891443  .00002543  00000+0  16451-3 0  9995
2 61194  97.5557 277.7531 0015061 249.4573 110.5040 15.09002898 98909
